TISAT 1                 
1 36799U 10035E   26068.75703561  .00024554  00000+0  91005-3 0  9996
2 36799  98.0645   6.8512 0001343 159.3030 200.8262 15.27628633852505
STARLINK-31976          
1 59887U 24100C   26068.51025519 -.00004740  00000+0 -16274-3 0  9993
2 59887  43.0015 130.3389 0001770 234.8036 125.2650 15.27599527101083
